[
  {"RepName":"Arevalo, Raquel","Address":"6611 Chambers Creek Rd W","City":"University Place","State":"WA","PostalCode":"98467","Latitude":47.198989,"Longitude":-122.527187},
  {"RepName":"Barrere, Jamie","Address":"2229 Tahoe Ct","City":"Norcross","State":"GA","PostalCode":"30071","Latitude":33.938495,"Longitude":-84.182487},
  {"RepName":"Blankenship, Carmen","Address":"3266 Mimosa Park Dr","City":"Richland Hills","State":"TX","PostalCode":"76118","Latitude":32.80835302775649,"Longitude":-97.2325734177349},
  {"RepName":"Cherry, Holly","Address":"1915 Simmons Street #2051","City":"Las Vegas","State":"NV","PostalCode":"89106","Latitude":36.193089,"Longitude":-115.180945},
  {"RepName":"Coleman, Kenny","Address":"351 A1 Long Island Court, Unit A-1","City":"Dover","State":"DE","PostalCode":"19901","Latitude":39.156376,"Longitude":-75.49549},
  {"RepName":"Desmuke, Brittany","Address":"13600 Wimbledon Loop #521","City":"Little Rock","State":"AR","PostalCode":"72210","Latitude":34.67133,"Longitude":-92.43217},
  {"RepName":"Gaulin, Darlene","Address":"305 Oak Hill Ave","City":"Seekonk","State":"MA","PostalCode":"02771","Latitude":41.901684,"Longitude":-71.308374},
  {"RepName":"Gonzalez, Gabriel","Address":"5146 Alderton","City":"San Antonio","State":"TX","PostalCode":"78228","Latitude":29.46066,"Longitude":-98.590022},
  {"RepName":"Harbin, Thomas","Address":"2113 John Glenn Rd","City":"Dayton","State":"OH","PostalCode":"45420","Latitude":39.7374,"Longitude":-84.145401},
  {"RepName":"Hopkins, Adrienne","Address":"11320 Winterpock Rd","City":"Chesterfield","State":"VA","PostalCode":"23838","Latitude":37.354997,"Longitude":-77.684468},
  {"RepName":"Houston, Theresa","Address":"2881 Old Big Cove Rd, Apt 133","City":"Owens Cross Roads","State":"AL","PostalCode":"35763","Latitude":34.599917,"Longitude":-86.487563},
  {"RepName":"Jones, Juliet","Address":"451 E 120th St, Apt 302","City":"Los Angeles","State":"CA","PostalCode":"90061","Latitude":33.92387,"Longitude":-118.26571},
  {"RepName":"Kuhls, Rachel","Address":"464 Broken Arrow Drive","City":"Galivants Ferry","State":"SC","PostalCode":"29544","Latitude":33.929457,"Longitude":-79.174499},
  {"RepName":"Leisure, Margaret","Address":"4400 Bull St","City":"Saint Cloud","State":"FL","PostalCode":"34772","Latitude":28.215187,"Longitude":-81.261854},
  {"RepName":"Lucca, Lori","Address":"318 Bitter Root circle","City":"Rutherfordton","State":"NC","PostalCode":"28139","Latitude":35.339729,"Longitude":-82.004874},
  {"RepName":"Mackerman, Dustin","Address":"14435 N 27th Drive","City":"Phoenix","State":"AZ","PostalCode":"85053","Latitude":33.616834,"Longitude":-112.117319},
  {"RepName":"Neely, Cindy","Address":"2210 Cambridge Blvd","City":"Columbus","State":"OH","PostalCode":"43221","Latitude":39.997702,"Longitude":-83.067502},
  {"RepName":"Newman, Sonja","Address":"300 Wyatt Lee Drive, Apartment 11-B","City":"Rainbow City","State":"AL","PostalCode":"35906","Latitude":33.95482,"Longitude":-86.04192},
  {"RepName":"Nunez Almeida, Ricardo","Address":"1801 Revere Pl","City":"Carmel","State":"IN","PostalCode":"46032","Latitude":39.956971,"Longitude":-86.123248},
  {"RepName":"Ortega, Robert","Address":"5701 Eastridge Drive","City":"Sacramento","State":"CA","PostalCode":"95842","Latitude":38.687029,"Longitude":-121.333117},
  {"RepName":"Owens, Shakina","Address":"242 Bannon Court","City":"Hampton","State":"VA","PostalCode":"23666","Latitude":37.025226,"Longitude":-76.425502},
  {"RepName":"Robb, Jeremiah","Address":"304 N Fredericksburg Way","City":"Vancouver","State":"WA","PostalCode":"98664","Latitude":45.6227,"Longitude":-122.591265},
  {"RepName":"Saxe, Melissa","Address":"12410 58th Street","City":"Albertville","State":"MN","PostalCode":"55301","Latitude":45.235257,"Longitude":-93.63508},
  {"RepName":"Spek, Rina","Address":"9506 South Fairway View Drive","City":"Sandy","State":"UT","PostalCode":"84070","Latitude":40.578944,"Longitude":-111.911595},
  {"RepName":"Topp, Ranata","Address":"317 Berkley Street","City":"Dearborn","State":"MI","PostalCode":"48124","Latitude":42.310265,"Longitude":-83.273525},
  {"RepName":"Vanderbrink, Chelsea","Address":"4 Cringle Ln","City":"Anderson","State":"SC","PostalCode":"29625","Latitude":34.547734,"Longitude":-82.688899},
  {"RepName":"Williams, Heather","Address":"2416 N Nottingham Way, Apt 301","City":"Moore","State":"OK","PostalCode":"73160","Latitude":35.359563,"Longitude":-97.506441},
  {"RepName":"Williams, Louise","Address":"238 Willowbrook Circle","City":"Clayton","State":"NC","PostalCode":"27527","Latitude":35.670265,"Longitude":-78.375582},
  {"RepName":"Wilson, Amy","Address":"731 W Greenwood St.","City":"Springfield","State":"MO","PostalCode":"65807","Latitude":37.164297,"Longitude":-93.301058}
]
